LANDSAT 9               
1 49260U 21088A   23235.18398881  .00000524  00000+0  12631-3 0  9997
2 49260  98.2255 304.2611 0001412 100.9091 259.2267 14.57096540101140
